[
    {
        "Altitude(m)": 604221.2275692362,
        "Argument of Periapsis(deg)": 0.0,
        "Eccentricity": 0.0,
        "Inclination(deg)": 60.0,
        "Latitude(deg)": 14.117378395303433,
        "Longitude(deg)": 73.33413844837243,
        "Mean Anomaly(deg)": 16.363600000000012,
        "RAAN(deg)": 165.0,
        "Satellite Name": "Test1 727",
        "Satellite Number": 727,
        "Semi-Major Axis(m)": 6980739.136638005,
        "Time(s)": 0
    },
    {
        "Altitude(m)": 604235.3693418372,
        "Argument of Periapsis(deg)": 0.00010418945913296404,
        "Eccentricity": 0.0,
        "Inclination(deg)": 60.0,
        "Latitude(deg)": 14.651775461023771,
        "Longitude(deg)": 73.62258495845633,
        "Mean Anomaly(deg)": 16.983706145461838,
        "RAAN(deg)": 164.99957995086024,
        "Satellite Name": "Test1 727",
        "Satellite Number": 727,
        "Semi-Major Axis(m)": 6980739.136638005,
        "Time(s)": 10
    }
]